{"type": "FeatureCollection", "features": [ {"type": "Feature", "properties": {"norad_id": 31241, "name": "FENGYUN 1C DEB", "group": "fengyun-1c-debris", "lat": 37.71773768582581, "lon": 133.91586819329896, "alt_km": 785.0658186782448, "timestamp": "2025-12-19T18:58:41.869314+00:00", "meta": {"OBJECT_NAME": "FENGYUN 1C DEB", "OBJECT_ID": "1999-025BLX", "EPOCH": "2025-12-19T03:46:37.644960", "MEAN_MOTION": 14.38720767, "ECCENTRICITY": 0.00669061, "INCLINATION": 99.2357, "RA_OF_ASC_NODE": 140.4638, "ARG_OF_PERICENTER": 162.3214, "MEAN_ANOMALY": 198.0321, "EPHEMERIS_TYPE": 0, "CLASSIFICATION_TYPE": "U", "NORAD_CAT_ID": 31241, "ELEMENT_SET_NO": 999, "REV_AT_EPOCH": 97783, "BSTAR": 0.00046931981, "MEAN_MOTION_DOT": 1.428e-05, "MEAN_MOTION_DDOT": 0}, "tle": {"line1": "1 31241U 99025BLX 25353.15738015  .00001428  00000+0  46932-3 0  9995", "line2": "2 31241  99.2357 140.4638 0066906 162.3214 198.0321 14.38720767977833"}}, "geometry": {"type": "Point", "coordinates": [133.91586819329896, 37.71773768582581]}}, {"type": "Feature", "properties": {"norad_id": 31243, "name": "FENGYUN 1C DEB", "group": "fengyun-1c-debris", "lat": -62.78450570272355, "lon": -163.59786133084043, "alt_km": 880.2782986585999, "timestamp": "2025-12-19T18:58:41.869324+00:00", "meta": {"OBJECT_NAME": "FENGYUN 1C DEB", "OBJECT_ID": "1999-025BLZ", "EPOCH": "2025-12-18T09:24:14.505120", "MEAN_MOTION": 14.07185132, "ECCENTRICITY": 0.00662196, "INCLINATION": 98.7499, "RA_OF_ASC_NODE": 32.4739, "ARG_OF_PERICENTER": 152.7117, "MEAN_ANOMALY": 207.7557, "EPHEMERIS_TYPE": 0, "CLASSIFICATION_TYPE": "U", "NORAD_CAT_ID": 31243, "ELEMENT_SET_NO": 999, "REV_AT_EPOCH": 69387, "BSTAR": 0.00075786632, "MEAN_MOTION_DOT": 1.253e-05, "MEAN_MOTION_DDOT": 0}, "tle": {"line1": "1 31243U 99025BLZ 25352.39183455  .00001253  00000+0  75787-3 0  9990", "line2": "2 31243  98.7499  32.4739 0066219 152.7117 207.7557 14.07185132693875"}}, "geometry": {"type": "Point", "coordinates": [-163.59786133084043, -62.78450570272355]}}, {"type": "Feature", "properties": {"norad_id": 31244, "name": "FENGYUN 1C DEB", "group": "fengyun-1c-debris", "lat": -63.16068061109331, "lon": -140.93502882171686, "alt_km": 877.6737214228242, "timestamp": "2025-12-19T18:58:41.869333+00:00", "meta": {"OBJECT_NAME": "FENGYUN 1C DEB", "OBJECT_ID": "1999-025BMA", "EPOCH": "2025-12-07T22:21:36.542016", "MEAN_MOTION": 14.06237413, "ECCENTRICITY": 0.01023168, "INCLINATION": 99.037, "RA_OF_ASC_NODE": 45.5611, "ARG_OF_PERICENTER": 188.335, "MEAN_ANOMALY": 171.6122, "EPHEMERIS_TYPE": 0, "CLASSIFICATION_TYPE": "U", "NORAD_CAT_ID": 31244, "ELEMENT_SET_NO": 999, "REV_AT_EPOCH": 57572, "BSTAR": 0.00047777338, "MEAN_MOTION_DOT": 7.8e-06, "MEAN_MOTION_DDOT": 0}, "tle": {"line1": "1 31244U 99025BMA 25341.93167294  .00000780  00000+0  47777-3 0  9994", "line2": "2 31244  99.0370  45.5611 0102316 188.3350 171.6122 14.06237413575724"}}, "geometry": {"type": "Point", "coordinates": [-140.93502882171686, -63.16068061109331]}}, {"type": "Feature", "properties": {"norad_id": 31246, "name": "FENGYUN 1C DEB", "group": "fengyun-1c-debris", "lat": 3.171709029772066, "lon": 21.101868500598428, "alt_km": 961.2465072867781, "timestamp": "2025-12-19T18:58:41.869345+00:00", "meta": {"OBJECT_NAME": "FENGYUN 1C DEB", "OBJECT_ID": "1999-025BMC", "EPOCH": "2025-12-12T08:40:07.558176", "MEAN_MOTION": 14.07203108, "ECCENTRICITY": 0.01486979, "INCLINATION": 98.8179, "RA_OF_ASC_NODE": 193.3588, "ARG_OF_PERICENTER": 344.8205, "MEAN_ANOMALY": 14.8526, "EPHEMERIS_TYPE": 0, "CLASSIFICATION_TYPE": "U", "NORAD_CAT_ID": 31246, "ELEMENT_SET_NO": 999, "REV_AT_EPOCH": 61747, "BSTAR": 0.003171684, "MEAN_MOTION_DOT": 5.838e-05, "MEAN_MOTION_DDOT": 0}, "tle": {"line1": "1 31246U 99025BMC 25346.36119859  .00005838  00000+0  31717-2 0  9997", "line2": "2 31246  98.8179 193.3588 0148697 344.8205  14.8526 14.07203108617475"}}, "geometry": {"type": "Point", "coordinates": [21.101868500598428, 3.171709029772066]}}, {"type": "Feature", "properties": {"norad_id": 31247, "name": "FENGYUN 1C DEB", "group": "fengyun-1c-debris", "lat": 31.959366214549, "lon": 68.10968948793753, "alt_km": 884.2772918027449, "timestamp": "2025-12-19T18:58:41.869355+00:00", "meta": {"OBJECT_NAME": "FENGYUN 1C DEB", "OBJECT_ID": "1999-025BMD", "EPOCH": "2025-12-19T03:38:56.942880", "MEAN_MOTION": 14.05141398, "ECCENTRICITY": 0.00591155, "INCLINATION": 99.3669, "RA_OF_ASC_NODE": 241.5398, "ARG_OF_PERICENTER": 45.1692, "MEAN_ANOMALY": 112.4499, "EPHEMERIS_TYPE": 0, "CLASSIFICATION_TYPE": "U", "NORAD_CAT_ID": 31247, "ELEMENT_SET_NO": 999, "REV_AT_EPOCH": 95611, "BSTAR": 0.0010015357, "MEAN_MOTION_DOT": 1.595e-05, "MEAN_MOTION_DDOT": 0}, "tle": {"line1": "1 31247U 99025BMD 25353.15204795  .00001595  00000+0  10015-2 0  9991", "line2": "2 31247  99.3669 241.5398 0059115  45.1692 112.4499 14.05141398956119"}}, "geometry": {"type": "Point", "coordinates": [68.10968948793753, 31.959366214549]}}, {"type": "Feature", "properties": {"norad_id": 31248, "name": "FENGYUN 1C DEB", "group": "fengyun-1c-debris", "lat": 47.49591471749352, "lon": 40.99424714668731, "alt_km": 949.315842819552, "timestamp": "2025-12-19T18:58:41.869365+00:00", "meta": {"OBJECT_NAME": "FENGYUN 1C DEB", "OBJECT_ID": "1999-025BME", "EPOCH": "2025-12-18T15:54:42.813792", "MEAN_MOTION": 13.92792265, "ECCENTRICITY": 0.01098054, "INCLINATION": 99.2637, "RA_OF_ASC_NODE": 50.1244, "ARG_OF_PERICENTER": 295.1877, "MEAN_ANOMALY": 220.4499, "EPHEMERIS_TYPE": 0, "CLASSIFICATION_TYPE": "U", "NORAD_CAT_ID": 31248, "ELEMENT_SET_NO": 999, "REV_AT_EPOCH": 94906, "BSTAR": 0.00044323631, "MEAN_MOTION_DOT": 5.57e-06, "MEAN_MOTION_DDOT": 0}, "tle": {"line1": "1 31248U 99025BME 25352.66299553  .00000557  00000+0  44324-3 0  9991", "line2": "2 31248  99.2637  50.1244 0109805 295.1877 220.4499 13.92792265949068"}}, "geometry": {"type": "Point", "coordinates": [40.99424714668731, 47.49591471749352]}}, {"type": "Feature", "properties": {"norad_id": 31250, "name": "FENGYUN 1C DEB", "group": "fengyun-1c-debris", "lat": 41.79672921303082, "lon": 30.858166243680458, "alt_km": 953.66179427514, "timestamp": "2025-12-19T18:58:41.869375+00:00", "meta": {"OBJECT_NAME": "FENGYUN 1C DEB", "OBJECT_ID": "1999-025BMG", "EPOCH": "2025-12-18T13:13:06.686976", "MEAN_MOTION": 14.03106073, "ECCENTRICITY": 0.01330971, "INCLINATION": 98.3884, "RA_OF_ASC_NODE": 202.1345, "ARG_OF_PERICENTER": 281.558, "MEAN_ANOMALY": 77.0672, "EPHEMERIS_TYPE": 0, "CLASSIFICATION_TYPE": "U", "NORAD_CAT_ID": 31250, "ELEMENT_SET_NO": 999, "REV_AT_EPOCH": 95599, "BSTAR": 0.00086627181, "MEAN_MOTION_DOT": 1.417e-05, "MEAN_MOTION_DDOT": 0}, "tle": {"line1": "1 31250U 99025BMG 25352.55077184  .00001417  00000+0  86627-3 0  9994", "line2": "2 31250  98.3884 202.1345 0133097 281.5580  77.0672 14.03106073955993"}}, "geometry": {"type": "Point", "coordinates": [30.858166243680458, 41.79672921303082]}}, {"type": "Feature", "properties": {"norad_id": 31252, "name": "FENGYUN 1C DEB", "group": "fengyun-1c-debris", "lat": 52.52550546015841, "lon": 1.4404900125258089, "alt_km": 769.9370957083238, "timestamp": "2025-12-19T18:58:41.869385+00:00", "meta": {"OBJECT_NAME": "FENGYUN 1C DEB", "OBJECT_ID": "1999-025BMJ", "EPOCH": "2025-12-17T18:22:10.909056", "MEAN_MOTION": 14.40187577, "ECCENTRICITY": 0.02140088, "INCLINATION": 98.3168, "RA_OF_ASC_NODE": 10.4713, "ARG_OF_PERICENTER": 157.098, "MEAN_ANOMALY": 203.9929, "EPHEMERIS_TYPE": 0, "CLASSIFICATION_TYPE": "U", "NORAD_CAT_ID": 31252, "ELEMENT_SET_NO": 999, "REV_AT_EPOCH": 97279, "BSTAR": 0.00025554258, "MEAN_MOTION_DOT": 1.009e-05, "MEAN_MOTION_DDOT": 0}, "tle": {"line1": "1 31252U 99025BMJ 25351.76540404  .00001009  00000+0  25554-3 0  9997", "line2": "2 31252  98.3168  10.4713 0214008 157.0980 203.9929 14.40187577972793"}}, "geometry": {"type": "Point", "coordinates": [1.4404900125258089, 52.52550546015841]}}, {"type": "Feature", "properties": {"norad_id": 31253, "name": "FENGYUN 1C DEB", "group": "fengyun-1c-debris", "lat": -39.9133278865376, "lon": 66.49405414897942, "alt_km": 960.5293657887732, "timestamp": "2025-12-19T18:58:41.869396+00:00", "meta": {"OBJECT_NAME": "FENGYUN 1C DEB", "OBJECT_ID": "1999-025BMK", "EPOCH": "2025-12-17T22:41:24.357984", "MEAN_MOTION": 14.03605882, "ECCENTRICITY": 0.02907471, "INCLINATION": 99.0768, "RA_OF_ASC_NODE": 56.9647, "ARG_OF_PERICENTER": 76.4077, "MEAN_ANOMALY": 286.9293, "EPHEMERIS_TYPE": 0, "CLASSIFICATION_TYPE": "U", "NORAD_CAT_ID": 31253, "ELEMENT_SET_NO": 999, "REV_AT_EPOCH": 69071, "BSTAR": 5.1352029e-05, "MEAN_MOTION_DOT": 7.2e-07, "MEAN_MOTION_DDOT": 0}, "tle": {"line1": "1 31253U 99025BMK 25351.94542081  .00000072  00000+0  51352-4 0  9996", "line2": "2 31253  99.0768  56.9647 0290747  76.4077 286.9293 14.03605882690711"}}, "geometry": {"type": "Point", "coordinates": [66.49405414897942, -39.9133278865376]}}, {"type": "Feature", "properties": {"norad_id": 31254, "name": "FENGYUN 1C DEB", "group": "fengyun-1c-debris", "lat": 52.54366658911787, "lon": -125.43351845563323, "alt_km": 701.599552341494, "timestamp": "2025-12-19T18:58:41.869406+00:00", "meta": {"OBJECT_NAME": "FENGYUN 1C DEB", "OBJECT_ID": "1999-025BML", "EPOCH": "2025-12-18T22:54:20.078784", "MEAN_MOTION": 14.3637614, "ECCENTRICITY": 0.01516121, "INCLINATION": 98.4619, "RA_OF_ASC_NODE": 42.54, "ARG_OF_PERICENTER": 183.5972, "MEAN_ANOMALY": 302.0613, "EPHEMERIS_TYPE": 0, "CLASSIFICATION_TYPE": "U", "NORAD_CAT_ID": 31254, "ELEMENT_SET_NO": 999, "REV_AT_EPOCH": 97605, "BSTAR": 0.00038423181, "MEAN_MOTION_DOT": 1.236e-05, "MEAN_MOTION_DDOT": 0}, "tle": {"line1": "1 31254U 99025BML 25352.95439906  .00001236  00000+0  38423-3 0  9996", "line2": "2 31254  98.4619  42.5400 0151612 183.5972 302.0613 14.36376140976057"}}, "geometry": {"type": "Point", "coordinates": [-125.43351845563323, 52.54366658911787]}}]}